start=new Date('2022-06-08T00:00:00.000Z').valueOf();
sats=[{"CENTER_NAME":"EARTH","TLE_LINE1":"1 47592U 21009AW  22158.78294592  .00000056  00000-0  22668-4 0  9992","ARG_OF_PERICENTER":"63.9837","PERIOD":"95.592","NORAD_CAT_ID":"47592","DECAY_DATE":null,"INCLINATION":"53.0559","TLE_LINE2":"2 47592  53.0559  75.8670 0001944  63.9837 296.1352 15.06397000 73888","LAUNCH_DATE":"2021-02-04","SEMIMAJOR_AXIS":"6925.358","EPHEMERIS_TYPE":"0","BSTAR":"0.00002266800000","CLASSIFICATION_TYPE":"U","MEAN_ANOMALY":"296.1352","MEAN_MOTION_DOT":"0.00000056","REV_AT_EPOCH":"7388","APOAPSIS":"548.569","MEAN_MOTION":"15.06397000","REF_FRAME":"TEME","COUNTRY_CODE":"US","PERIAPSIS":"545.876","RA_OF_ASC_NODE":"75.8670","MEAN_ELEMENT_THEORY":"SGP4","EPOCH":"2022-06-07T18:47:26.527488","OBJECT_TYPE":"PAYLOAD","SITE":"AFETR","OBJECT_NAME":"STARLINK-1997","GP_ID":"205594641","FILE":"3485136","RCS_SIZE":"LARGE","OBJECT_ID":"2021-009AW","MEAN_MOTION_DDOT":"0.0000000000000","ELEMENT_SET_NO":"999","ECCENTRICITY":"0.00019440","TIME_SYSTEM":"UTC"},{"CENTER_NAME":"EARTH","ARG_OF_PERICENTER":"53.9006","TLE_LINE1":"1 47593U 21009AX  22158.48806801  .00001113  00000-0  93598-4 0  9997","NORAD_CAT_ID":"47593","PERIOD":"95.592","DECAY_DATE":null,"INCLINATION":"53.0551","LAUNCH_DATE":"2021-02-04","EPHEMERIS_TYPE":"0","SEMIMAJOR_AXIS":"6925.345","TLE_LINE2":"2 47593  53.0551  77.1734 0002180  53.9006 306.2185 15.06401139 74446","MEAN_MOTION_DOT":"0.00001113","REV_AT_EPOCH":"7444","CLASSIFICATION_TYPE":"U","BSTAR":"0.00009359800000","MEAN_ANOMALY":"306.2185","APOAPSIS":"548.720","MEAN_MOTION":"15.06401139","COUNTRY_CODE":"US","REF_FRAME":"TEME","PERIAPSIS":"545.700","MEAN_ELEMENT_THEORY":"SGP4","RA_OF_ASC_NODE":"77.1734","EPOCH":"2022-06-07T11:42:49.076064","OBJECT_NAME":"STARLINK-1998","SITE":"AFETR","OBJECT_TYPE":"PAYLOAD","GP_ID":"205571243","FILE":"3485074","RCS_SIZE":"LARGE","OBJECT_ID":"2021-009AX","MEAN_MOTION_DDOT":"0.0000000000000","ECCENTRICITY":"0.00021800","ELEMENT_SET_NO":"999","TIME_SYSTEM":"UTC"},{"MEAN_MOTION":"15.06400916","REF_FRAME":"TEME","COUNTRY_CODE":"US","PERIAPSIS":"545.662","CLASSIFICATION_TYPE":"U","BSTAR":"0.00006695400000","MEAN_ANOMALY":"304.3961","MEAN_MOTION_DOT":"0.00000716","REV_AT_EPOCH":"7379","APOAPSIS":"548.760","INCLINATION":"53.0557","TLE_LINE2":"2 47594  53.0557  78.5353 0002237  55.7239 304.3961 15.06400916 73796","EPHEMERIS_TYPE":"0","LAUNCH_DATE":"2021-02-04","SEMIMAJOR_AXIS":"6925.346","CENTER_NAME":"EARTH","ARG_OF_PERICENTER":"55.7239","TLE_LINE1":"1 47594U 21009AY  22158.18950628  .00000716  00000-0  66954-4 0  9996","PERIOD":"95.592","NORAD_CAT_ID":"47594","DECAY_DATE":null,"ECCENTRICITY":"0.00022370","ELEMENT_SET_NO":"999","TIME_SYSTEM":"UTC","RCS_SIZE":"LARGE","OBJECT_ID":"2021-009AY","MEAN_MOTION_DDOT":"0.0000000000000","GP_ID":"205564134","FILE":"3484919","RA_OF_ASC_NODE":"78.5353","MEAN_ELEMENT_THEORY":"SGP4","EPOCH":"2022-06-07T04:32:53.342592","OBJECT_TYPE":"PAYLOAD","SITE":"AFETR","OBJECT_NAME":"STARLINK-1999"},{"EPOCH":"2022-06-07T21:42:35.251488","RA_OF_ASC_NODE":"75.3155","MEAN_ELEMENT_THEORY":"SGP4","OBJECT_TYPE":"PAYLOAD","SITE":"AFETR","OBJECT_NAME":"STARLINK-2000","GP_ID":"205593892","FILE":"3485136","RCS_SIZE":"LARGE","MEAN_MOTION_DDOT":"0.0000000000000","OBJECT_ID":"2021-009AZ","ELEMENT_SET_NO":"999","ECCENTRICITY":"0.00018360","TIME_SYSTEM":"UTC","ARG_OF_PERICENTER":"62.7676","TLE_LINE1":"1 47595U 21009AZ  22158.90457467 -.00000263  00000-0  12509-5 0  9996","CENTER_NAME":"EARTH","DECAY_DATE":null,"PERIOD":"95.592","NORAD_CAT_ID":"47595","INCLINATION":"53.0550","TLE_LINE2":"2 47595  53.0550  75.3155 0001836  62.7676 297.3500 15.06404661 73906","LAUNCH_DATE":"2021-02-04","SEMIMAJOR_AXIS":"6925.334","EPHEMERIS_TYPE":"0","APOAPSIS":"548.471","BSTAR":"0.00000125090000","MEAN_ANOMALY":"297.3500","CLASSIFICATION_TYPE":"U","REV_AT_EPOCH":"7390","MEAN_MOTION_DOT":"-0.00000263","REF_FRAME":"TEME","COUNTRY_CODE":"US","MEAN_MOTION":"15.06404661","PERIAPSIS":"545.928"},{"TIME_SYSTEM":"UTC","ELEMENT_SET_NO":"999","ECCENTRICITY":"0.00020540","OBJECT_ID":"2021-009BA","MEAN_MOTION_DDOT":"0.0000000000000","RCS_SIZE":"LARGE","FILE":"3485136","GP_ID":"205594142","OBJECT_NAME":"STARLINK-2001","SITE":"AFETR","OBJECT_TYPE":"PAYLOAD","MEAN_ELEMENT_THEORY":"SGP4","RA_OF_ASC_NODE":"75.2974","EPOCH":"2022-06-07T21:47:53.937888","PERIAPSIS":"545.785","MEAN_MOTION":"15.06402038","COUNTRY_CODE":"US","REF_FRAME":"TEME","REV_AT_EPOCH":"7390","MEAN_MOTION_DOT":"-0.00000318","CLASSIFICATION_TYPE":"U","BSTAR":"-0.00000243220000","MEAN_ANOMALY":"301.4353","APOAPSIS":"548.630","LAUNCH_DATE":"2021-02-04","SEMIMAJOR_AXIS":"6925.342","EPHEMERIS_TYPE":"0","TLE_LINE2":"2 47596  53.0561  75.2974 0002054  58.6837 301.4353 15.06402038 73902","INCLINATION":"53.0561","NORAD_CAT_ID":"47596","PERIOD":"95.592","DECAY_DATE":null,"CENTER_NAME":"EARTH","ARG_OF_PERICENTER":"58.6837","TLE_LINE1":"1 47596U 21009BA  22158.90826317 -.00000318  00000-0 -24322-5 0  9999"},{"GP_ID":"205564884","FILE":"3484919","EPOCH":"2022-06-07T12:04:02.968896","RA_OF_ASC_NODE":"77.1194","MEAN_ELEMENT_THEORY":"SGP4","OBJECT_TYPE":"PAYLOAD","SITE":"AFETR","OBJECT_NAME":"STARLINK-2002","ECCENTRICITY":"0.00021760","ELEMENT_SET_NO":"999","TIME_SYSTEM":"UTC","RCS_SIZE":"LARGE","MEAN_MOTION_DDOT":"0.0000000000000","OBJECT_ID":"2021-009BB","INCLINATION":"53.0563","TLE_LINE2":"2 47597  53.0563  77.1194 0002176  56.2417 303.8779 15.06398752 73841","LAUNCH_DATE":"2021-02-04","EPHEMERIS_TYPE":"0","SEMIMAJOR_AXIS":"6925.352","TLE_LINE1":"1 47597U 21009BB  22158.50281214  .00001093  00000-0  92255-4 0  9995","ARG_OF_PERICENTER":"56.2417","CENTER_NAME":"EARTH","DECAY_DATE":null,"PERIOD":"95.592","NORAD_CAT_ID":"47597","REF_FRAME":"TEME","COUNTRY_CODE":"US","MEAN_MOTION":"15.06398752","PERIAPSIS":"545.710","APOAPSIS":"548.724","BSTAR":"0.00009225500000","MEAN_ANOMALY":"303.8779","CLASSIFICATION_TYPE":"U","MEAN_MOTION_DOT":"0.00001093","REV_AT_EPOCH":"7384"},{"DECAY_DATE":null,"PERIOD":"95.590","NORAD_CAT_ID":"47598","TLE_LINE1":"1 47598U 21009BC  22158.84464785  .00005419  00000-0  38209-3 0  9993","ARG_OF_PERICENTER":"118.8045","CENTER_NAME":"EARTH","TLE_LINE2":"2 47598  53.0560  45.5887 0003512 118.8045 241.3297 15.06436103 74939","LAUNCH_DATE":"2021-02-04","EPHEMERIS_TYPE":"0","SEMIMAJOR_AXIS":"6925.238","INCLINATION":"53.0560","APOAPSIS":"549.535","CLASSIFICATION_TYPE":"U","BSTAR":"0.00038209000000","MEAN_ANOMALY":"241.3297","REV_AT_EPOCH":"7493","MEAN_MOTION_DOT":"0.00005419","PERIAPSIS":"544.671","REF_FRAME":"TEME","COUNTRY_CODE":"US","MEAN_MOTION":"15.06436103","SITE":"AFETR","OBJECT_TYPE":"PAYLOAD","OBJECT_NAME":"STARLINK-2003","EPOCH":"2022-06-07T20:16:17.574240","RA_OF_ASC_NODE":"45.5887","MEAN_ELEMENT_THEORY":"SGP4","FILE":"3485074","GP_ID":"205571245","MEAN_MOTION_DDOT":"0.0000000000000","OBJECT_ID":"2021-009BC","RCS_SIZE":"LARGE","TIME_SYSTEM":"UTC","ELEMENT_SET_NO":"999","ECCENTRICITY":"0.00035120"},{"OBJECT_NAME":"STARLINK-2004","OBJECT_TYPE":"PAYLOAD","SITE":"AFETR","EPOCH":"2022-06-07T21:37:17.990688","MEAN_ELEMENT_THEORY":"SGP4","RA_OF_ASC_NODE":"35.3372","FILE":"3485136","GP_ID":"205594393","MEAN_MOTION_DDOT":"0.0000000000000","OBJECT_ID":"2021-009BD","RCS_SIZE":"LARGE","TIME_SYSTEM":"UTC","ECCENTRICITY":"0.00017920","ELEMENT_SET_NO":"999","DECAY_DATE":null,"NORAD_CAT_ID":"47599","PERIOD":"95.593","ARG_OF_PERICENTER":"64.8838","TLE_LINE1":"1 47599U 21009BD  22158.90090267 -.00000729  00000-0 -30046-4 0  9994","CENTER_NAME":"EARTH","LAUNCH_DATE":"2021-02-04","SEMIMAJOR_AXIS":"6925.374","EPHEMERIS_TYPE":"0","TLE_LINE2":"2 47599  53.0567  35.3372 0001792  64.8838 295.2337 15.06391826 74464","INCLINATION":"53.0567","APOAPSIS":"548.480","MEAN_MOTION_DOT":"-0.00000729","REV_AT_EPOCH":"7446","BSTAR":"-0.00003004600000","CLASSIFICATION_TYPE":"U","MEAN_ANOMALY":"295.2337","PERIAPSIS":"545.998","COUNTRY_CODE":"US","REF_FRAME":"TEME","MEAN_MOTION":"15.06391826"},{"CENTER_NAME":"EARTH","ARG_OF_PERICENTER":"72.7000","TLE_LINE1":"1 47600U 21009BE  22158.86034586  .00001186  00000-0  98525-4 0  9996","NORAD_CAT_ID":"47600","PERIOD":"95.592","DECAY_DATE":null,"INCLINATION":"53.0552","LAUNCH_DATE":"2021-02-04","SEMIMAJOR_AXIS":"6925.359","EPHEMERIS_TYPE":"0","TLE_LINE2":"2 47600  53.0552  35.4849 0001611  72.7000 287.4165 15.06396623 75070","MEAN_MOTION_DOT":"0.00001186","REV_AT_EPOCH":"7507","CLASSIFICATION_TYPE":"U","BSTAR":"0.00009852500000","MEAN_ANOMALY":"287.4165","APOAPSIS":"548.340","MEAN_MOTION":"15.06396623","COUNTRY_CODE":"US","REF_FRAME":"TEME","PERIAPSIS":"546.108","MEAN_ELEMENT_THEORY":"SGP4","RA_OF_ASC_NODE":"35.4849","EPOCH":"2022-06-07T20:38:53.882304","OBJECT_NAME":"STARLINK-2005","SITE":"AFETR","OBJECT_TYPE":"PAYLOAD","GP_ID":"205571746","FILE":"3485074","RCS_SIZE":"LARGE","OBJECT_ID":"2021-009BE","MEAN_MOTION_DDOT":"0.0000000000000","ELEMENT_SET_NO":"999","ECCENTRICITY":"0.00016110","TIME_SYSTEM":"UTC"},{"DECAY_DATE":null,"NORAD_CAT_ID":"47601","PERIOD":"95.592","TLE_LINE1":"1 47601U 21009BF  22158.90457403  .00000293  00000-0  38553-4 0  9992","ARG_OF_PERICENTER":"65.1198","CENTER_NAME":"EARTH","LAUNCH_DATE":"2021-02-04","SEMIMAJOR_AXIS":"6925.333","EPHEMERIS_TYPE":"0","TLE_LINE2":"2 47601  53.0562  35.3246 0001742  65.1198 294.9972 15.06404938 74461","INCLINATION":"53.0562","APOAPSIS":"548.405","MEAN_MOTION_DOT":"0.00000293","REV_AT_EPOCH":"7446","CLASSIFICATION_TYPE":"U","BSTAR":"0.00003855300000","MEAN_ANOMALY":"294.9972","PERIAPSIS":"545.992","COUNTRY_CODE":"US","REF_FRAME":"TEME","MEAN_MOTION":"15.06404938","OBJECT_NAME":"STARLINK-2006","OBJECT_TYPE":"PAYLOAD","SITE":"AFETR","EPOCH":"2022-06-07T21:42:35.196192","MEAN_ELEMENT_THEORY":"SGP4","RA_OF_ASC_NODE":"35.3246","FILE":"3485136","GP_ID":"205595392","MEAN_MOTION_DDOT":"0.0000000000000","OBJECT_ID":"2021-009BF","RCS_SIZE":"LARGE","TIME_SYSTEM":"UTC","ECCENTRICITY":"0.00017420","ELEMENT_SET_NO":"999"}];
